{"type": "FeatureCollection", "features": [ {"type": "Feature", "properties": {"norad_id": 36163, "name": "FENGYUN 1C DEB", "group": "fengyun-1c-debris", "lat": -72.86093792102194, "lon": -5.215260056941216, "alt_km": 721.5217079710228, "timestamp": "2025-12-26T15:29:39.727280+00:00", "meta": {"OBJECT_NAME": "FENGYUN 1C DEB", "OBJECT_ID": "1999-025DSL", "EPOCH": "2025-12-19T12:50:06.955008", "MEAN_MOTION": 14.59242955, "ECCENTRICITY": 0.0039086, "INCLINATION": 99.0787, "RA_OF_ASC_NODE": 198.2455, "ARG_OF_PERICENTER": 50.867, "MEAN_ANOMALY": 309.5991, "EPHEMERIS_TYPE": 0, "CLASSIFICATION_TYPE": "U", "NORAD_CAT_ID": 36163, "ELEMENT_SET_NO": 999, "REV_AT_EPOCH": 89286, "BSTAR": 0.0021304, "MEAN_MOTION_DOT": 0.0001012, "MEAN_MOTION_DDOT": 0}, "tle": {"line1": "1 36163U 99025DSL 25353.53480272  .00010120  00000+0  21304-2 0  9998", "line2": "2 36163  99.0787 198.2455 0039086  50.8670 309.5991 14.59242955892862"}}, "geometry": {"type": "Point", "coordinates": [-5.215260056941216, -72.86093792102194]}}, {"type": "Feature", "properties": {"norad_id": 36167, "name": "FENGYUN 1C DEB", "group": "fengyun-1c-debris", "lat": -33.12280672931095, "lon": 82.62854394177621, "alt_km": 685.9571915459865, "timestamp": "2025-12-26T15:29:39.727290+00:00", "meta": {"OBJECT_NAME": "FENGYUN 1C DEB", "OBJECT_ID": "1999-025DSQ", "EPOCH": "2025-12-21T23:29:57.430752", "MEAN_MOTION": 14.49314917, "ECCENTRICITY": 0.00688049, "INCLINATION": 98.8145, "RA_OF_ASC_NODE": 263.5651, "ARG_OF_PERICENTER": 216.098, "MEAN_ANOMALY": 143.5557, "EPHEMERIS_TYPE": 0, "CLASSIFICATION_TYPE": "U", "NORAD_CAT_ID": 36167, "ELEMENT_SET_NO": 999, "REV_AT_EPOCH": 67413, "BSTAR": 0.00094360862, "MEAN_MOTION_DOT": 3.662e-05, "MEAN_MOTION_DDOT": 0}, "tle": {"line1": "1 36167U 99025DSQ 25355.97913693  .00003662  00000+0  94361-3 0  9997", "line2": "2 36167  98.8145 263.5651 0068804 216.0980 143.5557 14.49314917674134"}}, "geometry": {"type": "Point", "coordinates": [82.62854394177621, -33.12280672931095]}}, {"type": "Feature", "properties": {"norad_id": 36173, "name": "FENGYUN 1C DEB", "group": "fengyun-1c-debris", "lat": 35.739824458059026, "lon": 142.852302647972, "alt_km": 699.3621792462445, "timestamp": "2025-12-26T15:29:39.727300+00:00", "meta": {"OBJECT_NAME": "FENGYUN 1C DEB", "OBJECT_ID": "1999-025DSW", "EPOCH": "2025-12-22T02:59:15.796896", "MEAN_MOTION": 14.25182833, "ECCENTRICITY": 0.01475243, "INCLINATION": 98.2146, "RA_OF_ASC_NODE": 312.65, "ARG_OF_PERICENTER": 157.5208, "MEAN_ANOMALY": 203.2527, "EPHEMERIS_TYPE": 0, "CLASSIFICATION_TYPE": "U", "NORAD_CAT_ID": 36173, "ELEMENT_SET_NO": 999, "REV_AT_EPOCH": 59224, "BSTAR": 0.00017937593, "MEAN_MOTION_DOT": 4.32e-06, "MEAN_MOTION_DDOT": 0}, "tle": {"line1": "1 36173U 99025DSW 25356.12448839  .00000432  00000+0  17938-3 0  9994", "line2": "2 36173  98.2146 312.6500 0147524 157.5208 203.2527 14.25182833592240"}}, "geometry": {"type": "Point", "coordinates": [142.852302647972, 35.739824458059026]}}, {"type": "Feature", "properties": {"norad_id": 36180, "name": "FENGYUN 1C DEB", "group": "fengyun-1c-debris", "lat": -74.80180450105401, "lon": -149.53204276459826, "alt_km": 835.2696887336169, "timestamp": "2025-12-26T15:29:39.727310+00:00", "meta": {"OBJECT_NAME": "FENGYUN 1C DEB", "OBJECT_ID": "1999-025DTD", "EPOCH": "2025-12-05T21:21:22.276224", "MEAN_MOTION": 14.20680074, "ECCENTRICITY": 0.02106275, "INCLINATION": 98.4572, "RA_OF_ASC_NODE": 43.7979, "ARG_OF_PERICENTER": 50.8055, "MEAN_ANOMALY": 311.1621, "EPHEMERIS_TYPE": 0, "CLASSIFICATION_TYPE": "U", "NORAD_CAT_ID": 36180, "ELEMENT_SET_NO": 999, "REV_AT_EPOCH": 70486, "BSTAR": 0.00091841135, "MEAN_MOTION_DOT": 2.432e-05, "MEAN_MOTION_DDOT": 0}, "tle": {"line1": "1 36180U 99025DTD 25339.88984116  .00002432  00000+0  91841-3 0  9996", "line2": "2 36180  98.4572  43.7979 0210627  50.8055 311.1621 14.20680074704867"}}, "geometry": {"type": "Point", "coordinates": [-149.53204276459826, -74.80180450105401]}}, {"type": "Feature", "properties": {"norad_id": 36182, "name": "FENGYUN 1C DEB", "group": "fengyun-1c-debris", "lat": 58.63682355123884, "lon": 124.14808215895312, "alt_km": 767.842285533975, "timestamp": "2025-12-26T15:29:39.727321+00:00", "meta": {"OBJECT_NAME": "FENGYUN 1C DEB", "OBJECT_ID": "1999-025DTF", "EPOCH": "2025-12-25T02:07:08.173920", "MEAN_MOTION": 14.348194, "ECCENTRICITY": 0.00224624, "INCLINATION": 99.0895, "RA_OF_ASC_NODE": 287.2829, "ARG_OF_PERICENTER": 41.9095, "MEAN_ANOMALY": 318.3803, "EPHEMERIS_TYPE": 0, "CLASSIFICATION_TYPE": "U", "NORAD_CAT_ID": 36182, "ELEMENT_SET_NO": 999, "REV_AT_EPOCH": 88134, "BSTAR": 0.0016067011, "MEAN_MOTION_DOT": 4.527e-05, "MEAN_MOTION_DDOT": 0}, "tle": {"line1": "1 36182U 99025DTF 25359.08828905  .00004527  00000+0  16067-2 0  9998", "line2": "2 36182  99.0895 287.2829 0022462  41.9095 318.3803 14.34819400881348"}}, "geometry": {"type": "Point", "coordinates": [124.14808215895312, 58.63682355123884]}}, {"type": "Feature", "properties": {"norad_id": 36186, "name": "FENGYUN 1C DEB", "group": "fengyun-1c-debris", "lat": -26.907509283943885, "lon": -128.94867934540505, "alt_km": 518.2829571784032, "timestamp": "2025-12-26T15:29:39.727332+00:00", "meta": {"OBJECT_NAME": "FENGYUN 1C DEB", "OBJECT_ID": "1999-025DTK", "EPOCH": "2025-12-15T21:11:23.031744", "MEAN_MOTION": 15.12863238, "ECCENTRICITY": 0.00117449, "INCLINATION": 98.9868, "RA_OF_ASC_NODE": 213.7545, "ARG_OF_PERICENTER": 332.6772, "MEAN_ANOMALY": 45.2682, "EPHEMERIS_TYPE": 0, "CLASSIFICATION_TYPE": "U", "NORAD_CAT_ID": 36186, "ELEMENT_SET_NO": 999, "REV_AT_EPOCH": 61618, "BSTAR": 0.0071053274, "MEAN_MOTION_DOT": 0.00127217, "MEAN_MOTION_DDOT": 0}, "tle": {"line1": "1 36186U 99025DTK 25349.88290546  .00127217  00000+0  71053-2 0  9991", "line2": "2 36186  98.9868 213.7545 0011744 332.6772  45.2682 15.12863238616186"}}, "geometry": {"type": "Point", "coordinates": [-128.94867934540505, -26.907509283943885]}}, {"type": "Feature", "properties": {"norad_id": 36188, "name": "FENGYUN 1C DEB", "group": "fengyun-1c-debris", "lat": 46.65059679217739, "lon": 92.3694720816953, "alt_km": 713.9881525840119, "timestamp": "2025-12-26T15:29:39.727342+00:00", "meta": {"OBJECT_NAME": "FENGYUN 1C DEB", "OBJECT_ID": "1999-025DTM", "EPOCH": "2025-12-23T18:14:27.373920", "MEAN_MOTION": 14.60921287, "ECCENTRICITY": 0.00481334, "INCLINATION": 98.5852, "RA_OF_ASC_NODE": 98.5873, "ARG_OF_PERICENTER": 270.3481, "MEAN_ANOMALY": 89.2203, "EPHEMERIS_TYPE": 0, "CLASSIFICATION_TYPE": "U", "NORAD_CAT_ID": 36188, "ELEMENT_SET_NO": 999, "REV_AT_EPOCH": 88213, "BSTAR": 0.0025681041, "MEAN_MOTION_DOT": 0.00012749, "MEAN_MOTION_DDOT": 0}, "tle": {"line1": "1 36188U 99025DTM 25357.76003905  .00012749  00000+0  25681-2 0  9999", "line2": "2 36188  98.5852  98.5873 0048133 270.3481  89.2203 14.60921287882135"}}, "geometry": {"type": "Point", "coordinates": [92.3694720816953, 46.65059679217739]}}, {"type": "Feature", "properties": {"norad_id": 36198, "name": "FENGYUN 1C DEB", "group": "fengyun-1c-debris", "lat": 3.2563885084752124, "lon": 28.877683640987147, "alt_km": 847.6209640155694, "timestamp": "2025-12-26T15:29:39.727352+00:00", "meta": {"OBJECT_NAME": "FENGYUN 1C DEB", "OBJECT_ID": "1999-025DTX", "EPOCH": "2025-12-24T00:22:26.192352", "MEAN_MOTION": 14.07956534, "ECCENTRICITY": 0.00962767, "INCLINATION": 98.6238, "RA_OF_ASC_NODE": 26.8596, "ARG_OF_PERICENTER": 83.715, "MEAN_ANOMALY": 277.4975, "EPHEMERIS_TYPE": 0, "CLASSIFICATION_TYPE": "U", "NORAD_CAT_ID": 36198, "ELEMENT_SET_NO": 999, "REV_AT_EPOCH": 63746, "BSTAR": 0.0016668418, "MEAN_MOTION_DOT": 2.915e-05, "MEAN_MOTION_DDOT": 0}, "tle": {"line1": "1 36198U 99025DTX 25358.01558093  .00002915  00000+0  16668-2 0  9991", "line2": "2 36198  98.6238  26.8596 0096276  83.7150 277.4975 14.07956534637466"}}, "geometry": {"type": "Point", "coordinates": [28.877683640987147, 3.2563885084752124]}}, {"type": "Feature", "properties": {"norad_id": 36199, "name": "FENGYUN 1C DEB", "group": "fengyun-1c-debris", "lat": -40.13361258510206, "lon": -165.94222255676786, "alt_km": 863.6515627979543, "timestamp": "2025-12-26T15:29:39.727362+00:00", "meta": {"OBJECT_NAME": "FENGYUN 1C DEB", "OBJECT_ID": "1999-025DTY", "EPOCH": "2025-12-24T00:19:09.568416", "MEAN_MOTION": 14.29665492, "ECCENTRICITY": 0.00924714, "INCLINATION": 98.2889, "RA_OF_ASC_NODE": 18.6118, "ARG_OF_PERICENTER": 34.3692, "MEAN_ANOMALY": 326.3427, "EPHEMERIS_TYPE": 0, "CLASSIFICATION_TYPE": "U", "NORAD_CAT_ID": 36199, "ELEMENT_SET_NO": 999, "REV_AT_EPOCH": 65141, "BSTAR": 0.00025510375, "MEAN_MOTION_DOT": 6.44e-06, "MEAN_MOTION_DDOT": 0}, "tle": {"line1": "1 36199U 99025DTY 25358.01330519  .00000644  00000+0  25510-3 0  9997", "line2": "2 36199  98.2889  18.6118 0092471  34.3692 326.3427 14.29665492651411"}}, "geometry": {"type": "Point", "coordinates": [-165.94222255676786, -40.13361258510206]}}, {"type": "Feature", "properties": {"norad_id": 36200, "name": "FENGYUN 1C DEB", "group": "fengyun-1c-debris", "lat": 30.816909620503772, "lon": 70.73235227735206, "alt_km": 684.8942135783527, "timestamp": "2025-12-26T15:29:39.727372+00:00", "meta": {"OBJECT_NAME": "FENGYUN 1C DEB", "OBJECT_ID": "1999-025DTZ", "EPOCH": "2025-12-18T11:29:22.430112", "MEAN_MOTION": 14.58878702, "ECCENTRICITY": 0.00334665, "INCLINATION": 99.3866, "RA_OF_ASC_NODE": 67.1749, "ARG_OF_PERICENTER": 349.3175, "MEAN_ANOMALY": 10.7306, "EPHEMERIS_TYPE": 0, "CLASSIFICATION_TYPE": "U", "NORAD_CAT_ID": 36200, "ELEMENT_SET_NO": 999, "REV_AT_EPOCH": 73444, "BSTAR": 0.0030254182, "MEAN_MOTION_DOT": 0.00014247, "MEAN_MOTION_DDOT": 0}, "tle": {"line1": "1 36200U 99025DTZ 25352.47873183  .00014247  00000+0  30254-2 0  9997", "line2": "2 36200  99.3866  67.1749 0033466 349.3175  10.7306 14.58878702734441"}}, "geometry": {"type": "Point", "coordinates": [70.73235227735206, 30.816909620503772]}}]}